{
    "@context": [
        "https://geojson.org/geojson-ld/geojson-context.jsonld",
        {
            "@version": "1.1",
            "wx": "https://api.weather.gov/ontology#",
            "geo": "http://www.opengis.net/ont/geosparql#",
            "unit": "http://codes.wmo.int/common/unit/",
            "@vocab": "https://api.weather.gov/ontology#"
        }
    ],
    "type": "Feature",
    "geometry": {
        "type": "Polygon",
        "coordinates": [
            [
                [
                    -110.8821,
                    33.0396
                ],
                [
                    -110.8853,
                    33.0621
                ],
                [
                    -110.9121,
                    33.0595
                ],
                [
                    -110.9089,
                    33.037
                ],
                [
                    -110.8821,
                    33.0396
                ]
            ]
        ]
    },
    "properties": {
        "units": "us",
        "forecastGenerator": "BaselineForecastGenerator",
        "generatedAt": "2026-02-20T16:03:54+00:00",
        "updateTime": "2026-02-20T11:17:55+00:00",
        "validTimes": "2026-02-20T05:00:00+00:00/P7DT20H",
        "elevation": {
            "unitCode": "wmoUnit:m",
            "value": 608.9904
        },
        "periods": [
            {
                "number": 1,
                "name": "Today",
                "startTime": "2026-02-20T09:00:00-07:00",
                "endTime": "2026-02-20T18:00:00-07:00",
                "isDaytime": true,
                "temperature": 60,
                "temperatureUnit": "F",
                "temperatureTrend": null,
                "probabilityOfPrecipitation": {
                    "unitCode": "wmoUnit:percent",
                    "value": 11
                },
                "windSpeed": "14 mph",
                "windDirection": "W",
                "icon": "https://api.weather.gov/icons/land/day/sct?size=medium",
                "shortForecast": "Mostly Sunny",
                "detailedForecast": "Mostly sunny, with a high near 60. West wind around 14 mph."
            },
            {
                "number": 2,
                "name": "Tonight",
                "startTime": "2026-02-20T18:00:00-07:00",
                "endTime": "2026-02-21T06:00:00-07:00",
                "isDaytime": false,
                "temperature": 37,
                "temperatureUnit": "F",
                "temperatureTrend": null,
                "probabilityOfPrecipitation": {
                    "unitCode": "wmoUnit:percent",
                    "value": 0
                },
                "windSpeed": "2 to 7 mph",
                "windDirection": "ENE",
                "icon": "https://api.weather.gov/icons/land/night/few?size=medium",
                "shortForecast": "Mostly Clear",
                "detailedForecast": "Mostly clear, with a low around 37. East northeast wind 2 to 7 mph."
            },
            {
                "number": 3,
                "name": "Saturday",
                "startTime": "2026-02-21T06:00:00-07:00",
                "endTime": "2026-02-21T18:00:00-07:00",
                "isDaytime": true,
                "temperature": 70,
                "temperatureUnit": "F",
                "temperatureTrend": null,
                "probabilityOfPrecipitation": {
                    "unitCode": "wmoUnit:percent",
                    "value": 0
                },
                "windSpeed": "5 to 12 mph",
                "windDirection": "E",
                "icon": "https://api.weather.gov/icons/land/day/skc?size=medium",
                "shortForecast": "Sunny",
                "detailedForecast": "Sunny, with a high near 70. East wind 5 to 12 mph."
            },
            {
                "number": 4,
                "name": "Saturday Night",
                "startTime": "2026-02-21T18:00:00-07:00",
                "endTime": "2026-02-22T06:00:00-07:00",
                "isDaytime": false,
                "temperature": 47,
                "temperatureUnit": "F",
                "temperatureTrend": null,
                "probabilityOfPrecipitation": {
                    "unitCode": "wmoUnit:percent",
                    "value": 0
                },
                "windSpeed": "8 mph",
                "windDirection": "ENE",
                "icon": "https://api.weather.gov/icons/land/night/sct?size=medium",
                "shortForecast": "Partly Cloudy",
                "detailedForecast": "Partly cloudy, with a low around 47. East northeast wind around 8 mph."
            },
            {
                "number": 5,
                "name": "Sunday",
                "startTime": "2026-02-22T06:00:00-07:00",
                "endTime": "2026-02-22T18:00:00-07:00",
                "isDaytime": true,
                "temperature": 77,
                "temperatureUnit": "F",
                "temperatureTrend": null,
                "probabilityOfPrecipitation": {
                    "unitCode": "wmoUnit:percent",
                    "value": 0
                },
                "windSpeed": "9 to 18 mph",
                "windDirection": "E",
                "icon": "https://api.weather.gov/icons/land/day/sct?size=medium",
                "shortForecast": "Mostly Sunny",
                "detailedForecast": "Mostly sunny, with a high near 77. East wind 9 to 18 mph."
            },
            {
                "number": 6,
                "name": "Sunday Night",
                "startTime": "2026-02-22T18:00:00-07:00",
                "endTime": "2026-02-23T06:00:00-07:00",
                "isDaytime": false,
                "temperature": 50,
                "temperatureUnit": "F",
                "temperatureTrend": null,
                "probabilityOfPrecipitation": {
                    "unitCode": "wmoUnit:percent",
                    "value": 0
                },
                "windSpeed": "8 to 12 mph",
                "windDirection": "E",
                "icon": "https://api.weather.gov/icons/land/night/few?size=medium",
                "shortForecast": "Mostly Clear",
                "detailedForecast": "Mostly clear, with a low around 50."
            },
            {
                "number": 7,
                "name": "Monday",
                "startTime": "2026-02-23T06:00:00-07:00",
                "endTime": "2026-02-23T18:00:00-07:00",
                "isDaytime": true,
                "temperature": 83,
                "temperatureUnit": "F",
                "temperatureTrend": null,
                "probabilityOfPrecipitation": {
                    "unitCode": "wmoUnit:percent",
                    "value": 0
                },
                "windSpeed": "6 to 16 mph",
                "windDirection": "ENE",
                "icon": "https://api.weather.gov/icons/land/day/few?size=medium",
                "shortForecast": "Sunny",
                "detailedForecast": "Sunny, with a high near 83."
            },
            {
                "number": 8,
                "name": "Monday Night",
                "startTime": "2026-02-23T18:00:00-07:00",
                "endTime": "2026-02-24T06:00:00-07:00",
                "isDaytime": false,
                "temperature": 52,
                "temperatureUnit": "F",
                "temperatureTrend": null,
                "probabilityOfPrecipitation": {
                    "unitCode": "wmoUnit:percent",
                    "value": 0
                },
                "windSpeed": "6 mph",
                "windDirection": "ENE",
                "icon": "https://api.weather.gov/icons/land/night/sct?size=medium",
                "shortForecast": "Partly Cloudy",
                "detailedForecast": "Partly cloudy, with a low around 52."
            },
            {
                "number": 9,
                "name": "Tuesday",
                "startTime": "2026-02-24T06:00:00-07:00",
                "endTime": "2026-02-24T18:00:00-07:00",
                "isDaytime": true,
                "temperature": 84,
                "temperatureUnit": "F",
                "temperatureTrend": null,
                "probabilityOfPrecipitation": {
                    "unitCode": "wmoUnit:percent",
                    "value": 0
                },
                "windSpeed": "3 to 10 mph",
                "windDirection": "SE",
                "icon": "https://api.weather.gov/icons/land/day/few?size=medium",
                "shortForecast": "Sunny",
                "detailedForecast": "Sunny, with a high near 84."
            },
            {
                "number": 10,
                "name": "Tuesday Night",
                "startTime": "2026-02-24T18:00:00-07:00",
                "endTime": "2026-02-25T06:00:00-07:00",
                "isDaytime": false,
                "temperature": 55,
                "temperatureUnit": "F",
                "temperatureTrend": null,
                "probabilityOfPrecipitation": {
                    "unitCode": "wmoUnit:percent",
                    "value": 1
                },
                "windSpeed": "2 to 9 mph",
                "windDirection": "SSW",
                "icon": "https://api.weather.gov/icons/land/night/sct?size=medium",
                "shortForecast": "Partly Cloudy",
                "detailedForecast": "Partly cloudy, with a low around 55."
            },
            {
                "number": 11,
                "name": "Wednesday",
                "startTime": "2026-02-25T06:00:00-07:00",
                "endTime": "2026-02-25T18:00:00-07:00",
                "isDaytime": true,
                "temperature": 86,
                "temperatureUnit": "F",
                "temperatureTrend": null,
                "probabilityOfPrecipitation": {
                    "unitCode": "wmoUnit:percent",
                    "value": 0
                },
                "windSpeed": "2 to 13 mph",
                "windDirection": "SW",
                "icon": "https://api.weather.gov/icons/land/day/few?size=medium",
                "shortForecast": "Sunny",
                "detailedForecast": "Sunny, with a high near 86."
            },
            {
                "number": 12,
                "name": "Wednesday Night",
                "startTime": "2026-02-25T18:00:00-07:00",
                "endTime": "2026-02-26T06:00:00-07:00",
                "isDaytime": false,
                "temperature": 56,
                "temperatureUnit": "F",
                "temperatureTrend": null,
                "probabilityOfPrecipitation": {
                    "unitCode": "wmoUnit:percent",
                    "value": 1
                },
                "windSpeed": "3 to 10 mph",
                "windDirection": "S",
                "icon": "https://api.weather.gov/icons/land/night/few?size=medium",
                "shortForecast": "Mostly Clear",
                "detailedForecast": "Mostly clear, with a low around 56."
            },
            {
                "number": 13,
                "name": "Thursday",
                "startTime": "2026-02-26T06:00:00-07:00",
                "endTime": "2026-02-26T18:00:00-07:00",
                "isDaytime": true,
                "temperature": 88,
                "temperatureUnit": "F",
                "temperatureTrend": null,
                "probabilityOfPrecipitation": {
                    "unitCode": "wmoUnit:percent",
                    "value": 1
                },
                "windSpeed": "3 to 12 mph",
                "windDirection": "SSE",
                "icon": "https://api.weather.gov/icons/land/day/few?size=medium",
                "shortForecast": "Sunny",
                "detailedForecast": "Sunny, with a high near 88."
            },
            {
                "number": 14,
                "name": "Thursday Night",
                "startTime": "2026-02-26T18:00:00-07:00",
                "endTime": "2026-02-27T06:00:00-07:00",
                "isDaytime": false,
                "temperature": 56,
                "temperatureUnit": "F",
                "temperatureTrend": null,
                "probabilityOfPrecipitation": {
                    "unitCode": "wmoUnit:percent",
                    "value": 1
                },
                "windSpeed": "3 to 10 mph",
                "windDirection": "SSE",
                "icon": "https://api.weather.gov/icons/land/night/few?size=medium",
                "shortForecast": "Mostly Clear",
                "detailedForecast": "Mostly clear, with a low around 56."
            }
        ]
    }
}